[Satellite]
VERSION=1.1
NAME=CBERS 2B
NICKNAME=CBERS 2B
TLE1=1 32062U 07042A   11060.11328021  .00000044  00000-0  28555-4 0  5119
TLE2=2 32062  98.4278 137.1737 0031491 258.7204 101.0446 14.38611729180825
